{
    "links": {
        "self": "http://www.neowsapp.com/rest/v1/neo/3689267?api_key=iIulBulltgU6a56xZRHN4H3l9WmuAYTsLGpBGhQ2"
    },
    "id": "3689267",
    "neo_reference_id": "3689267",
    "name": "(2014 SL1)",
    "designation": "2014 SL1",
    "nasa_jpl_url": "http://ssd.jpl.nasa.gov/sbdb.cgi?sstr=3689267",
    "absolute_magnitude_h": 26.0,
    "estimated_diameter": {
        "kilometers": {
            "estimated_diameter_min": 0.0167708462,
            "estimated_diameter_max": 0.0375007522
        },
        "meters": {
            "estimated_diameter_min": 16.7708462163,
            "estimated_diameter_max": 37.5007521798
        },
        "miles": {
            "estimated_diameter_min": 0.0104209175,
            "estimated_diameter_max": 0.0233018799
        },
        "feet": {
            "estimated_diameter_min": 55.0224631002,
            "estimated_diameter_max": 123.0339677816
        }
    },
    "is_potentially_hazardous_asteroid": false,
    "close_approach_data": [
        {
            "close_approach_date": "2008-10-02",
            "close_approach_date_full": "2008-Oct-02 01:15",
            "epoch_date_close_approach": 1222910100000,
            "relative_velocity": {
                "kilometers_per_second": "6.6732002671",
                "kilometers_per_hour": "24023.5209616523",
                "miles_per_hour": "14927.2816775334"
            },
            "miss_distance": {
                "astronomical": "0.1675479788",
                "lunar": "65.1761637532",
                "kilometers": "25064820.751285156",
                "miles": "15574557.4130249128"
            },
            "orbiting_body": "Earth"
        },
        {
            "close_approach_date": "2014-09-21",
            "close_approach_date_full": "2014-Sep-21 10:27",
            "epoch_date_close_approach": 1411295220000,
            "relative_velocity": {
                "kilometers_per_second": "5.2784036422",
                "kilometers_per_hour": "19002.2531118612",
                "miles_per_hour": "11807.2611072007"
            },
            "miss_distance": {
                "astronomical": "0.0713817789",
                "lunar": "27.7675119921",
                "kilometers": "10678562.080250943",
                "miles": "6635350.7913632934"
            },
            "orbiting_body": "Earth"
        },
        {
            "close_approach_date": "2020-09-01",
            "close_approach_date_full": "2020-Sep-01 14:25",
            "epoch_date_close_approach": 1598970300000,
            "relative_velocity": {
                "kilometers_per_second": "5.5087313627",
                "kilometers_per_hour": "19831.4329057818",
                "miles_per_hour": "12322.4811852621"
            },
            "miss_distance": {
                "astronomical": "0.1745604938",
                "lunar": "67.9040320882",
                "kilometers": "26113878.058628206",
                "miles": "16226411.3969370028"
            },
            "orbiting_body": "Earth"
        },
        {
            "close_approach_date": "2049-10-02",
            "close_approach_date_full": "2049-Oct-02 10:11",
            "epoch_date_close_approach": 2516782260000,
            "relative_velocity": {
                "kilometers_per_second": "6.7192138643",
                "kilometers_per_hour": "24189.169911481",
                "miles_per_hour": "15030.2094930533"
            },
            "miss_distance": {
                "astronomical": "0.1699137832",
                "lunar": "66.0964616648",
                "kilometers": "25418740.050361784",
                "miles": "15794472.6678652592"
            },
            "orbiting_body": "Earth"
        }
    ],
    "orbital_data": {
        "orbit_id": "5",
        "orbit_determination_date": "2017-04-06 08:38:40",
        "first_observation_date": "2014-09-17",
        "last_observation_date": "2014-09-26",
        "data_arc_in_days": 9,
        "observations_used": 21,
        "orbit_uncertainty": "7",
        "minimum_orbit_intersection": ".0721371",
        "jupiter_tisserand_invariant": "5.510",
        "epoch_osculation": "2459000.5",
        "eccentricity": ".06743168095632236",
        "semi_major_axis": "1.132704493108527",
        "inclination": "10.15167526402765",
        "ascending_node_longitude": "354.9005186941693",
        "orbital_period": "440.3250182002166",
        "perihelion_distance": "1.05632432511144",
        "perihelion_argument": "46.53254891516968",
        "aphelion_distance": "1.209084661105615",
        "perihelion_time": "2459170.377582407734",
        "mean_anomaly": "221.1118443445412",
        "mean_motion": ".8175778916025783",
        "equinox": "J2000",
        "orbit_class": {
            "orbit_class_type": "AMO",
            "orbit_class_description": "Near-Earth asteroid orbits similar to that of 1221 Amor",
            "orbit_class_range": "1.017 AU < q (perihelion) < 1.3 AU"
        }
    },
    "is_sentry_object": false
}